[{"OBJECT_NAME":"ASTROCAST-0401","OBJECT_ID":"2023-001DF","EPOCH":"2026-03-09T17:04:53.382144","MEAN_MOTION":15.26258462,"ECCENTRICITY":0.00081423,"INCLINATION":97.5547,"RA_OF_ASC_NODE":160.5206,"ARG_OF_PERICENTER":188.4231,"MEAN_ANOMALY":171.6872,"EPHEMERIS_TYPE":0,"CLASSIFICATION_TYPE":"U","NORAD_CAT_ID":55110,"ELEMENT_SET_NO":999,"REV_AT_EPOCH":17602,"BSTAR":0.00037868349,"MEAN_MOTION_DOT":9.75e-5,"MEAN_MOTION_DDOT":0},{"OBJECT_NAME":"STARLINK-30334","OBJECT_ID":"2023-129X","EPOCH":"2026-03-09T22:00:01.999584","MEAN_MOTION":15.26731391,"ECCENTRICITY":0.0001144,"INCLINATION":43,"RA_OF_ASC_NODE":116.7856,"ARG_OF_PERICENTER":265.4844,"MEAN_ANOMALY":154.4592,"EPHEMERIS_TYPE":0,"CLASSIFICATION_TYPE":"U","NORAD_CAT_ID":57719,"ELEMENT_SET_NO":999,"REV_AT_EPOCH":557,"BSTAR":0.00050439309,"MEAN_MOTION_DOT":0.00013291,"MEAN_MOTION_DDOT":0}]
